NORAD_CAT_ID,OBJECT_NAME,OBJECT_TYPE,EPOCH,MEAN_MOTION,ECCENTRICITY,INCLINATION,RA_OF_ASC_NODE,ARG_OF_PERICENTER,MEAN_ANOMALY,BSTAR,MEAN_MOTION_DOT,MEAN_MOTION_DDOT,TLE_LINE0,TLE_LINE1,TLE_LINE2,SEMIMAJOR_AXIS,PERIOD,APOGEE,PERIGEE,DECAYED
49419.0,STARLINK-3120,PAYLOAD,2021-12-10 22:00:00,15.7313649,0.0002397,53.2187,357.5215,20.5035,288.6064,0.00045208,0.00063136,0.0,0 STARLINK-3120,1 49419U 21104M   21344.91667824  .00063136  00000-0  45208-3 0  9993,2 49419  53.2187 357.5215 0002397  20.5035 288.6064 15.73136490  3689,6728.076,91.537,351.55400000000014,348.329,0.0
49419.0,STARLINK-3120,PAYLOAD,2021-12-11 00:00:00,15.73152447,0.0002397,53.2189,357.1090000000001,22.3446,38.9789,0.00034011,0.00047287,0.0,0 STARLINK-3120,1 49419U 21104M   21345.00001157  .00047287  00000-0  34011-3 0  9994,2 49419  53.2189 357.1090 0002397  22.3446  38.9789 15.73152447  5596,6728.031,91.536,351.5080000000001,348.283,0.0
49419.0,STARLINK-3120,PAYLOAD,2021-12-11 14:00:01,15.73193464,0.000275,53.2188,354.2247,20.7547,106.1407,7.828e-05,0.00010376,0.0,0 STARLINK-3120,1 49419U 21104M   21345.58334491  .00010376  00000-0  78280-4 0  9993,2 49419  53.2188 354.2247 0002750  20.7547 106.1407 15.73193464  5683,6727.9140000000025,91.534,351.629,347.92900000000014,0.0
49419.0,STARLINK-3120,PAYLOAD,2021-12-11 22:00:00,15.73205483,0.0002611,53.2173,352.5683,24.8727,190.7991,-8.6798e-06,-1.841e-05,0.0,0 STARLINK-3120,1 49419U 21104M   21345.91667824 -.00001841  00000-0 -86798-5 0  9992,2 49419  53.2173 352.5683 0002611  24.8727 190.7991 15.73205483  5742,6727.88,91.533,351.501,347.98800000000006,0.0
49419.0,STARLINK-3120,PAYLOAD,2021-12-12 06:00:00,15.73049309,0.0002609,53.2181,350.9212,21.682,283.148,-0.0020106,-0.00272174,0.0,0 STARLINK-3120,1 49419U 21104M   21346.25001157 -.00272174  00000-0 -20106-2 0  9998,2 49419  53.2181 350.9212 0002609  21.6820 283.1480 15.73049309  5795,6728.325,91.542,351.945,348.434,0.0
49419.0,STARLINK-3120,PAYLOAD,2021-12-12 14:00:01,15.72959209,0.0002296,53.2171,349.2708,16.3928,17.0637,-0.0051468999999999,-0.00662071,0.0,0 STARLINK-3120,1 49419U 21104M   21346.58334491 -.00662071  00000-0 -51469-2 0  9999,2 49419  53.2171 349.2708 0002296  16.3928  17.0637 15.72959209  5849,6728.581999999999,91.547,351.992,348.902,0.0
49419.0,STARLINK-3120,PAYLOAD,2021-12-12 22:00:01,15.72491765,0.0002576,53.2172,347.6199,15.1342,106.7427,-0.0052521,-0.00662236,0.0,0 STARLINK-3120,1 49419U 21104M   21346.91668981 -.00662236  00000-0 -52521-2 0  9993,2 49419  53.2172 347.6199 0002576  15.1342 106.7427 15.72491765  3685,6729.915,91.574,353.514,350.047,0.0
49419.0,STARLINK-3120,PAYLOAD,2021-12-13 14:00:01,15.71518291,0.0003205,53.2173,344.3286,307.0488,349.8027,-0.0049233,-0.00600125,0.0,0 STARLINK-3120,1 49419U 21104M   21347.58334491 -.00600125  00000-0 -49233-2 0  9998,2 49419  53.2173 344.3286 0003205 307.0488 349.8027 15.71518291  3679,6732.694,91.631,356.717,352.401,0.0
49419.0,STARLINK-3120,PAYLOAD,2021-12-13 22:00:00,15.71091807,0.0002597,53.2175,342.6805,343.4728,40.0338,-0.0055645,-0.00661125,0.0,0 STARLINK-3120,1 49419U 21104M   21347.91667824 -.00661125  00000-0 -55645-2 0  9995,2 49419  53.2175 342.6805 0002597 343.4728  40.0338 15.71091807  6052,6733.9119999999975,91.656,357.526,354.029,0.0
49419.0,STARLINK-3120,PAYLOAD,2021-12-14 14:00:01,15.70161558,0.0002905,53.2172,339.3949,277.459,277.7062,-0.0058423,-0.00667059,0.0,0 STARLINK-3120,1 49419U 21104M   21348.58334491 -.00667059  00000-0 -58423-2 0  9999,2 49419  53.2172 339.3949 0002905 277.4590 277.7062 15.70161558  3721,6736.571999999999,91.71,360.394,356.48,0.0
49419.0,STARLINK-3120,PAYLOAD,2021-12-14 22:00:00,15.69683534,0.000125,53.2173,337.7512,315.8726,324.2865,-0.0057573,-0.00645634,0.0,0 STARLINK-3120,1 49419U 21104M   21348.91667824 -.00645634  00000-0 -57573-2 0  9995,2 49419  53.2173 337.7512 0001250 315.8726 324.2865 15.69683534  6217,6737.939,91.738,360.647,358.962,0.0
49419.0,STARLINK-3120,PAYLOAD,2021-12-15 14:22:36,15.68738257,0.0001216,53.2174,334.395,66.79,110.281,-0.0061583,-0.00662608,0.0,0 STARLINK-3120,1 49419U 21104M   21349.59902778 -.00662608  00000-0 -61583-2 0  9996,2 49419  53.2174 334.3950 0001216  66.7900 110.2810 15.68738257  3699,6740.646,91.794,363.331,361.691,0.0
49419.0,STARLINK-3120,PAYLOAD,2021-12-15 22:00:01,15.68293163,0.000131,53.2175,332.8322,59.6285,112.1962,-0.0062575,-0.00661143,0.0,0 STARLINK-3120,1 49419U 21104M   21349.91668981 -.00661143  00000-0 -62575-2 0  9992,2 49419  53.2175 332.8322 0001310  59.6285 112.1962 15.68293163  6377,6741.920999999999,91.82,364.669,362.903,0.0
49419.0,STARLINK-3120,PAYLOAD,2021-12-16 14:00:01,15.67359819,0.0001088,53.2173,329.56,66.0368,270.6545,-0.0065,-0.00660905,0.0,0 STARLINK-3120,1 49419U 21104M   21350.58334491 -.00660905  00000-0 -65000-2 0  9994,2 49419  53.2173 329.5600 0001088  66.0368 270.6545 15.67359819  3692,6744.597,91.874,367.196,365.729,0.0
49419.0,STARLINK-3120,PAYLOAD,2021-12-16 22:00:01,15.66891952,0.0001273,53.2173,327.9235,61.5331,356.8501,-0.0065983,-0.00658436,0.0,0 STARLINK-3120,1 49419U 21104M   21350.91668981 -.00658436  00000-0 -65983-2 0  9991,2 49419  53.2173 327.9235 0001273  61.5331 356.8501 15.66891952  3680,6745.94,91.902,368.664,366.946,0.0
49419.0,STARLINK-3120,PAYLOAD,2021-12-17 02:00:01,15.66660854,0.0001232,53.2175,327.1077,50.2639,228.7199,-0.0066922,-0.00661312,0.0,0 STARLINK-3120,1 49419U 21104M   21351.08335648 -.00661312  00000-0 -66922-2 0  9992,2 49419  53.2175 327.1077 0001232  50.2639 228.7199 15.66660854  6553,6746.603,91.915,369.3,367.637,0.0
49419.0,STARLINK-3120,PAYLOAD,2021-12-17 05:24:26,15.66931141,0.0001038,53.2181,326.4198,82.4063,277.7072,-0.0027076,-0.002834,0.0,0 STARLINK-3120,1 49419U 21104M   21351.22530358 -.00283400  00000-0 -27076-2 0  9998,2 49419  53.2181 326.4198 0001038  82.4063 277.7072 15.66931141  6574,6745.828,91.899,368.393,366.992,0.0
49419.0,STARLINK-3120,PAYLOAD,2021-12-17 14:00:01,15.65961061,0.0001202,53.2173,324.6579,77.1797,142.77100000000004,-0.0068989,-0.00662557,0.0,0 STARLINK-3120,1 49419U 21104M   21351.58335648 -.00662557  00000-0 -68989-2 0  9994,2 49419  53.2173 324.6579 0001202  77.1797 142.7710 15.65961061  6636,6748.613,91.956,371.289,369.667,0.0
49419.0,STARLINK-3120,PAYLOAD,2021-12-17 22:00:00,15.65491918,0.0001211,53.2176,323.025,66.0875,233.7426,-0.0069667,-0.00656975,0.0,0 STARLINK-3120,1 49419U 21104M   21351.91667824 -.00656975  00000-0 -69667-2 0  9996,2 49419  53.2176 323.0250 0001211  66.0875 233.7426 15.65491918  3701,6749.9609999999975,91.984,372.644,371.009,0.0
49419.0,STARLINK-3120,PAYLOAD,2021-12-18 13:34:58,15.64975761,0.000167,53.2183,319.8595,50.7326,309.3839,-0.0034391999999999,-0.0033075,0.0,0 STARLINK-3120,1 49419U 21104M   21352.56595567 -.00330750  00000-0 -34392-2 0  9999,2 49419  53.2183 319.8595 0001670  50.7326 309.3839 15.64975761  5706,6751.445,92.014,374.43800000000016,372.1830000000001,0.0
49419.0,STARLINK-3120,PAYLOAD,2021-12-18 22:00:00,15.64093056,0.00015,53.2175,318.1368,50.4026,125.8935,-0.007375,-0.0065761,0.0,0 STARLINK-3120,1 49419U 21104M   21352.91667824 -.00657610  00000-0 -73750-2 0  9992,2 49419  53.2175 318.1368 0001500  50.4026 125.8935 15.64093056  6845,6753.985,92.066,376.86300000000006,374.837,0.0
49419.0,STARLINK-3120,PAYLOAD,2021-12-19 12:35:20,15.63646201,0.0002547,53.2192,315.1802,38.0404,322.0792,-0.0034341,-0.00313981,0.0,0 STARLINK-3120,1 49419U 21104M   21353.52454556 -.00313981  00000-0 -34341-2 0  9999,2 49419  53.2192 315.1802 0002547  38.0404 322.0792 15.63646201  5855,6755.272,92.092,378.858,375.417,0.0
49419.0,STARLINK-3120,PAYLOAD,2021-12-19 22:00:00,15.62578737,0.000114,53.2172,313.2597,51.5471,356.2291,-0.0058694,-0.0050245,0.0,0 STARLINK-3120,1 49419U 21104M   21353.91667824 -.00502450  00000-0 -58694-2 0  9994,2 49419  53.2172 313.2597 0001140  51.5471 356.2291 15.62578737  6991,6758.348000000001,92.155,380.984,379.443,0.0
49419.0,STARLINK-3120,PAYLOAD,2021-12-20 06:00:00,15.62088217,0.0001431,53.2176,311.6382,64.143,59.6694,-0.0056826,-0.00478646,0.0,0 STARLINK-3120,1 49419U 21104M   21354.25001157 -.00478646  00000-0 -56826-2 0  9997,2 49419  53.2176 311.6382 0001431  64.1430  59.6694 15.62088217  7055,6759.763000000001,92.184,382.595,380.661,0.0
49419.0,STARLINK-3120,PAYLOAD,2021-12-20 14:00:01,15.61762371,0.0001327,53.2175,310.0129,61.8752,137.3183,-0.0081456,-0.00662176,0.0,0 STARLINK-3120,1 49419U 21104M   21354.58334491 -.00662176  00000-0 -81456-2 0  9993,2 49419  53.2175 310.0129 0001327  61.8752 137.3183 15.61762371  7103,6760.703,92.204,383.465,381.671,0.0
49419.0,STARLINK-3120,PAYLOAD,2021-12-20 20:49:48,15.61841223,9.1e-05,53.2182,308.6372,77.0685,283.0432,-0.0033207,-0.00283862,0.0,0 STARLINK-3120,1 49419U 21104M   21354.86792752 -.00283862  00000-0 -33207-2 0  9994,2 49419  53.2182 308.6372 0000910  77.0685 283.0432 15.61841223  6069,6760.476,92.199,382.956,381.725,0.0
49419.0,STARLINK-3120,PAYLOAD,2021-12-21 14:00:01,15.60360433,0.0001173,53.2175,305.1518,58.3667,3.8389,-0.008544,-0.00658093,0.0,0 STARLINK-3120,1 49419U 21104M   21355.58334491 -.00658093  00000-0 -85440-2 0  9994,2 49419  53.2175 305.1518 0001173  58.3667   3.8389 15.60360433  3681,6764.752,92.286,387.411,385.824,0.0
49419.0,STARLINK-3120,PAYLOAD,2021-12-21 22:00:00,15.59892993,0.0001457,53.2176,303.5333,48.8628,86.559,-0.0086714,-0.00656196,0.0,0 STARLINK-3120,1 49419U 21104M   21355.91667824 -.00656196  00000-0 -86714-2 0  9997,2 49419  53.2176 303.5333 0001457  48.8628  86.5590 15.59892993  7310,6766.103,92.314,388.954,386.983,0.0
49419.0,STARLINK-3120,PAYLOAD,2021-12-22 14:00:01,15.58962906,0.0001226,53.2175,300.3007,67.4209,212.7494,-0.0090674,-0.00661659,0.0,0 STARLINK-3120,1 49419U 21104M   21356.58334491 -.00661659  00000-0 -90674-2 0  9992,2 49419  53.2175 300.3007 0001226  67.4209 212.7494 15.58962906  3681,6768.794,92.369,391.489,389.83,0.0
